{"type": "FeatureCollection", "features": [{"type": "Feature", "properties": {}, "geometry": {"type": "Polygon", "coordinates": [[[2.378861851842602, 48.810923763678325], [2.378948941973722, 48.810901913879924], [2.378671174756994, 48.8107453315569], [2.378670752905737, 48.810745096982636], [2.378152599395853, 48.81046089519995], [2.378141610695847, 48.810456584468234], [2.378129142962549, 48.81045472749584], [2.378116416622886, 48.81045550605591], [2.378104677417828, 48.81045884393768], [2.378095074461284, 48.810464414406475], [2.378088547757307, 48.810471672186544], [2.37808573618605, 48.81047990683634], [2.378086914965366, 48.810488312291206], [2.378091968709949, 48.81049606576655], [2.378100402725342, 48.81050240829777], [2.37861834423897, 48.810786493949315], [2.378861851842602, 48.810923763678325]]]}}]}