{"type": "FeatureCollection", "features": [{"type": "Feature", "properties": {}, "geometry": {"type": "Polygon", "coordinates": [[[2.36879245952144, 48.80648255976679], [2.36874696121511, 48.80652753450935], [2.368828897163668, 48.80655850295215], [2.368830167327447, 48.80655896346479], [2.369513554021665, 48.80679641103931], [2.369525656037423, 48.806799123826366], [2.369538434875743, 48.806799233652924], [2.369550639653036, 48.80679672976837], [2.369561075679139, 48.80679185727074], [2.369568721402485, 48.806785093114534], [2.369572828406931, 48.80677709942311], [2.369572994671736, 48.806768658675004], [2.369569203923597, 48.806760597109474], [2.369561827228884, 48.806753703848386], [2.369551586670489, 48.80674865365164], [2.368868841694082, 48.806511429099494], [2.36879245952144, 48.80648255976679]]]}}]}