{"type": "FeatureCollection", "features": [{"type": "Feature", "properties": {}, "geometry": {"type": "Polygon", "coordinates": [[[2.373071461969337, 48.80487188844891], [2.373004693621277, 48.80484076406263], [2.372884787835878, 48.80495950270358], [2.372884463470233, 48.80495982899965], [2.372690282627777, 48.80515827873013], [2.37260504884141, 48.805242180166424], [2.372604505303555, 48.80524295494154], [2.372603687123279, 48.805243616075906], [2.37245184451423, 48.805415502004294], [2.372451773741076, 48.80541562212875], [2.3724516516673, 48.80541572269376], [2.372310808362621, 48.80557867226216], [2.372310733181582, 48.80557875962044], [2.372193872168114, 48.80571513894427], [2.372265780281278, 48.805740770542215], [2.372381790765798, 48.80560538358904], [2.372522500573742, 48.80544258821846], [2.372673599103754, 48.805271544332626], [2.372758313818795, 48.80518815374736], [2.372758700744809, 48.80518776568757], [2.372952911972982, 48.80498928464335], [2.373071461969337, 48.80487188844891]]]}}]}