{"type": "FeatureCollection", "features": [{"type": "Feature", "properties": {}, "geometry": {"type": "Polygon", "coordinates": [[[2.399021918742075, 48.81729797942927], [2.39897366636872, 48.81734153367713], [2.399655686761478, 48.8176807143327], [2.399666974980933, 48.81768467500412], [2.399679564062358, 48.81768613824927], [2.399692221697011, 48.81768496083533], [2.399703708865633, 48.81768125801592], [2.399712901122984, 48.81767539224929], [2.399718898666805, 48.81766793771812], [2.399721114416757, 48.81765962412435], [2.399719331481541, 48.817651265260636], [2.399713724389064, 48.81764367935067], [2.399704842001742, 48.8176376089557], [2.399021918742075, 48.81729797942927]]]}}]}