{"type": "FeatureCollection", "features": [{"type": "Feature", "properties": {}, "geometry": {"type": "Polygon", "coordinates": [[[2.379013539363313, 48.81991304665938], [2.378996319542616, 48.81996604360819], [2.379038166310879, 48.81996928613967], [2.379169297280968, 48.81998112459052], [2.379742161572561, 48.82015235509912], [2.379776631654916, 48.820103426741454], [2.379197574468442, 48.81993034517166], [2.379186260315498, 48.81992819302504], [2.379048849186612, 48.81991578760694], [2.379048455482541, 48.819915793121154], [2.379048076367689, 48.819915722786625], [2.379013539363313, 48.81991304665938]]]}}]}