{"type": "FeatureCollection", "features": [{"type": "Feature", "properties": {}, "geometry": {"type": "Polygon", "coordinates": [[[2.38481335778592, 48.8066555136106], [2.38485976652915, 48.80661085416656], [2.384656482262044, 48.80650030077618], [2.38465624662079, 48.80650017359523], [2.384515628467962, 48.806424853801644], [2.384261374196543, 48.806286891176114], [2.384250351753952, 48.806282619166545], [2.384237870213791, 48.8062808060963], [2.384225151354491, 48.80628162944106], [2.384213440184799, 48.80628500860623], [2.384203883074341, 48.80629061281601], [2.384197415539455, 48.806297893491866], [2.384194670668423, 48.80630613795102], [2.384195917150031, 48.80631453916867], [2.384201032971794, 48.806322274774914], [2.384209517362694, 48.806328587554326], [2.38446387177961, 48.80646660458961], [2.384464072459571, 48.80646671277934], [2.384604673071585, 48.806542023214774], [2.38481335778592, 48.8066555136106]]]}}]}