{"type": "FeatureCollection", "features": [{"type": "Feature", "properties": {}, "geometry": {"type": "Polygon", "coordinates": [[[2.404051630490367, 48.804442447601346], [2.404084242322123, 48.80449937002998], [2.404367742234042, 48.80452176468996], [2.404380317028308, 48.804521468656716], [2.404392158746415, 48.80451865838263], [2.404515205847965, 48.804474302001125], [2.404515276527996, 48.80447427646236], [2.404750437190156, 48.804389106426115], [2.404750752388369, 48.80438899107032], [2.404943613253161, 48.804317671617966], [2.404908268535654, 48.804268899726246], [2.404711004542063, 48.80434184743309], [2.404476037331738, 48.804426947385494], [2.404364482583205, 48.804467160969104], [2.404051630490367, 48.804442447601346]]]}}]}