{"type": "FeatureCollection", "features": [{"type": "Feature", "properties": {}, "geometry": {"type": "Polygon", "coordinates": [[[2.368416022320371, 48.8068736700449], [2.368375394529051, 48.80692049728612], [2.369135033993887, 48.807195329968586], [2.369147065180009, 48.807198177063825], [2.369159839500147, 48.807198429101994], [2.369172106512988, 48.80719606141184], [2.369182665436287, 48.807191305759616], [2.369190482688383, 48.80718462766232], [2.369194793062641, 48.807176680819175], [2.369195174631032, 48.8071682431229], [2.369191590044831, 48.8071601405141], [2.369184390189878, 48.807153166132196], [2.369174279838815, 48.80714800267777], [2.368416022320371, 48.8068736700449]]]}}]}