{"type": "FeatureCollection", "features": [{"type": "Feature", "properties": {}, "geometry": {"type": "Polygon", "coordinates": [[[2.371551990546676, 48.80762286362087], [2.371510534430094, 48.80766936948813], [2.371563120641044, 48.807689085122476], [2.372525508537134, 48.80805118755372], [2.372537466304603, 48.808054166880815], [2.372550232686641, 48.80805455970649], [2.372562558018979, 48.80805232757816], [2.372573235810616, 48.80804768899243], [2.372581220844177, 48.80804109800692], [2.372585731489349, 48.808033199793776], [2.372586326214144, 48.808024767485506], [2.372582946804607, 48.80801662649528], [2.372575924062482, 48.80800957371961], [2.372565945423435, 48.80800429953282], [2.371603530882316, 48.80764218716669], [2.371603476406745, 48.80764216670621], [2.371551990546676, 48.80762286362087]]]}}]}