{"type": "FeatureCollection", "features": [{"type": "Feature", "properties": {}, "geometry": {"type": "Polygon", "coordinates": [[[2.37562182899931, 48.80807182915797], [2.375686035076505, 48.80809785850277], [2.375689974745244, 48.808096086121964], [2.375697797389396, 48.808089410715915], [2.376087276268063, 48.80762031323356], [2.376233735184607, 48.807449027674274], [2.376281897796789, 48.80740551804609], [2.376207927206718, 48.80738091593618], [2.37616637207405, 48.80741845638288], [2.376163778880169, 48.80742111270556], [2.376016015591552, 48.80759392347776], [2.376015767190344, 48.80759421827387], [2.375626165055936, 48.80806346344442], [2.37562184834105, 48.80807140879703], [2.37562182899931, 48.80807182915797]]]}}]}