{"type": "FeatureCollection", "features": [{"type": "Feature", "properties": {}, "geometry": {"type": "Polygon", "coordinates": [[[2.376037072789644, 48.811315220504845], [2.376103963682314, 48.81134620681622], [2.376326047463258, 48.811139781664025], [2.37633155315835, 48.81113258325312], [2.376333591706667, 48.81112463169525], [2.376331980974189, 48.81111663742821], [2.376326864874523, 48.81110931470537], [2.376318700510313, 48.81110331778025], [2.376236664112306, 48.81105874274578], [2.376191705062464, 48.81102204112444], [2.376169408508356, 48.81099503356065], [2.376156196468153, 48.8109555247618], [2.376150271686836, 48.81094635244012], [2.376139707111088, 48.81093922801761], [2.375676829832955, 48.81072558234486], [2.374836287623697, 48.81032379059234], [2.374824889267041, 48.81031997202617], [2.374812262201017, 48.81031866674772], [2.374799642449059, 48.81032000252657], [2.374788265318652, 48.810323848607574], [2.374779244481507, 48.81032982850999], [2.374773462960019, 48.81033735687989], [2.374771486690892, 48.810345696788445], [2.374773509126882, 48.8103540318675], [2.374779332299628, 48.81036154622121], [2.374788386197492, 48.810367504291854], [2.375629202307557, 48.81076942713196], [2.375629752674399, 48.81076968565999], [2.376079852404672, 48.810977433854816], [2.376090879326366, 48.8110104084969], [2.376094903118923, 48.81101750586464], [2.376121748843558, 48.81105002384156], [2.376125856304175, 48.811054078007636], [2.376175753356837, 48.811094810729834], [2.376181558262293, 48.8110986761651], [2.376237400027446, 48.811129018201214], [2.376037072789644, 48.811315220504845]]]}}]}