{"type": "FeatureCollection", "features": [{"type": "Feature", "properties": {}, "geometry": {"type": "Polygon", "coordinates": [[[2.377051395335546, 48.8074050776486], [2.377092001666874, 48.80736583015776], [2.377100161938477, 48.80735213855733], [2.377090689552896, 48.80734213323696], [2.376898434370063, 48.80726238867437], [2.377683770575378, 48.80642853511053], [2.37768891840825, 48.80642080877295], [2.377690199662687, 48.806412409838615], [2.377687488922392, 48.80640416045387], [2.3776810515352, 48.80639686812574], [2.377671517638338, 48.80639124667756], [2.377659820475845, 48.8063878463753], [2.377647105046232, 48.806387000063786], [2.377634616022527, 48.80638879058577], [2.377623575915695, 48.80639304267275], [2.377615065407403, 48.806399340101315], [2.376808478217559, 48.80722209590249], [2.37673607496749, 48.80720361668214], [2.376717022237507, 48.80719265629316], [2.376684267723237, 48.807181624458785], [2.376659723479828, 48.80717154051442], [2.376622869272182, 48.80715958219787], [2.376581818002894, 48.807154842683985], [2.376544747453113, 48.80716098496945], [2.376520548438318, 48.807179337635986], [2.376520552946241, 48.80717896053961], [2.377299897212055, 48.80634242689615], [2.377304806538988, 48.806334633128294], [2.377305829421161, 48.80632621874493], [2.377302865733569, 48.80631800740458], [2.377296205584259, 48.80631080289022], [2.377286500915897, 48.80630531042938], [2.377274701688755, 48.80630206766181], [2.377261962892087, 48.80630139201182], [2.377249531486236, 48.806303349616584], [2.377238624342166, 48.80630774885241], [2.377230309126287, 48.80631415909197], [2.376391157228498, 48.8072154423433], [2.376319434341173, 48.807280207521394], [2.376394885271611, 48.80731768855385], [2.376395570362994, 48.807317692127675], [2.37639470738212, 48.80731683195221], [2.376463203950029, 48.80734642442442], [2.376491051856928, 48.80731417785983], [2.376491087392692, 48.80731413662686], [2.376529541958194, 48.80726942547087], [2.376558672673164, 48.80725699688771], [2.376580660480203, 48.807251681030216], [2.376606737190442, 48.807248196666784], [2.376640883545274, 48.8072574256041], [2.376763669930046, 48.80730241510284], [2.376775979942547, 48.807304289455175], [2.376784146964984, 48.80730885747046], [2.377035614514934, 48.80740178444334], [2.377047486605408, 48.807404909438304], [2.377051395335546, 48.8074050776486]], [[2.376520548438318, 48.807179337635986], [2.376520547536733, 48.807179413055245], [2.376519857037645, 48.807179861997795], [2.376520548438318, 48.807179337635986]]]}}]}