{"type": "FeatureCollection", "features": [{"type": "Feature", "properties": {}, "geometry": {"type": "Polygon", "coordinates": [[[2.379070386550612, 48.81179048812654], [2.379027367146093, 48.81183641375396], [2.379078322714977, 48.81185913101207], [2.379271901765881, 48.81196778043064], [2.379059576922915, 48.81217499080886], [2.379054287656285, 48.81218234383334], [2.379052559849971, 48.81219040410923], [2.379054550797798, 48.812198437863024], [2.379060079253828, 48.81220571373539], [2.379068641931668, 48.81221156936111], [2.379220251203009, 48.81228790495749], [2.379231502666446, 48.81229190957357], [2.379244077151446, 48.8122934218649], [2.379256743778067, 48.81229229379767], [2.379268262646856, 48.812288635795085], [2.379277506209519, 48.81228280592843], [2.379283569641655, 48.81227537486623], [2.379285859413299, 48.81226707001311], [2.379284151387383, 48.812258704306174], [2.379278612759177, 48.81225109663895], [2.379269785689356, 48.81224499170244], [2.379148881379208, 48.8121841161813], [2.379360084514055, 48.81197800003251], [2.379365246779693, 48.811970920552476], [2.379367101638696, 48.81196315893829], [2.379365491768483, 48.81195537350871], [2.379360553715244, 48.81194822460226], [2.379352706311992, 48.81194231856905], [2.379129507289525, 48.81181704458273], [2.379125909033804, 48.811815241420156], [2.379070386550612, 48.81179048812654]]]}}]}