{"type": "FeatureCollection", "features": [{"type": "Feature", "properties": {}, "geometry": {"type": "Polygon", "coordinates": [[[2.370040882442066, 48.807378919429894], [2.369972119917091, 48.80735837037052], [2.369970826635071, 48.807359026463914], [2.36996359270146, 48.807365985455384], [2.369633998976022, 48.80782293627377], [2.369633913615333, 48.807823055365255], [2.369531004159464, 48.80796754083591], [2.369599332727995, 48.8079983691418], [2.369707795871338, 48.80784608598811], [2.370037346197301, 48.80738919445207], [2.370040970370064, 48.80738109952839], [2.370040882442066, 48.807378919429894]]]}}]}