{"type": "FeatureCollection", "features": [{"type": "Feature", "properties": {}, "geometry": {"type": "Polygon", "coordinates": [[[2.373687218166837, 48.81808475688827], [2.37361375171844, 48.8180605364039], [2.373558502794101, 48.81811850049591], [2.373470769012588, 48.818203045620685], [2.37346846880153, 48.818205542204595], [2.37341330726844, 48.81827344121031], [2.373350312952407, 48.818266168166964], [2.373384488683181, 48.81809140100218], [2.373384125719065, 48.81808297457586], [2.373379842658183, 48.81807503341129], [2.373372057611971, 48.818068352720125], [2.373361530552758, 48.818063584667165], [2.373059669307203, 48.817968684217746], [2.372903797146521, 48.81791477346228], [2.372780668639638, 48.81793310145586], [2.373022448388921, 48.818016724807215], [2.373023842055232, 48.81801718468264], [2.373299654080233, 48.818103895725926], [2.373264268842787, 48.81828484644355], [2.373264426129051, 48.818288470500654], [2.37326433825655, 48.81829209558148], [2.373264608679905, 48.818292676682425], [2.373264635053268, 48.818293284355015], [2.373266480493716, 48.81829669894124], [2.37326809325354, 48.81830016452974], [2.373268622363683, 48.81830066200522], [2.373268931802458, 48.81830123455425], [2.373272284753142, 48.81830410542592], [2.373275440277781, 48.81830707228603], [2.373276176281797, 48.81830743743966], [2.373276738496044, 48.81830791881999], [2.373281270747065, 48.818309964956], [2.373285660151985, 48.81831214267049], [2.373286531004649, 48.81831233975841], [2.373287290960939, 48.818312682849175], [2.373292558863743, 48.81831370395923], [2.373297752483137, 48.818314879358006], [2.373428316394425, 48.81832995369127], [2.373441045216351, 48.818330093662475], [2.373453221356347, 48.81832763964781], [2.373463662634508, 48.81832282990728], [2.37347135530912, 48.818316131417944], [2.373539426256783, 48.81823234195007], [2.373626357665753, 48.81814856993047], [2.37362670283438, 48.818148090364275], [2.373627232333429, 48.81814769077322], [2.373687218166837, 48.81808475688827]]]}}]}