{"type": "FeatureCollection", "features": [{"type": "Feature", "properties": {}, "geometry": {"type": "Polygon", "coordinates": [[[2.369849606307477, 48.808117618476], [2.369918665079097, 48.80814727587071], [2.370585195626253, 48.80723208102812], [2.370586189481947, 48.807230604777516], [2.370593876093052, 48.807218199561376], [2.370664182063154, 48.807243596537816], [2.371383001291369, 48.80753039054318], [2.371394839614185, 48.80753357098354], [2.371407586472388, 48.80753417943373], [2.371419994112849, 48.80753215633434], [2.371430847987627, 48.80752769972068], [2.371439085643014, 48.8075212458377], [2.371443900720221, 48.80751342643697], [2.371444821887269, 48.80750500693637], [2.371441758975747, 48.80749681149533], [2.371435011806415, 48.80748964234045], [2.371425240840039, 48.80748420123805], [2.370705671329045, 48.80719710796246], [2.3707041511843, 48.80719653049539], [2.370592981528273, 48.8071563721055], [2.370590818063758, 48.80715586117454], [2.370588853994903, 48.80715507369722], [2.370584835297324, 48.807154448264306], [2.370580947578976, 48.807153530127465], [2.370578650968881, 48.80715348579235], [2.370576414616436, 48.807153137746944], [2.370572300006428, 48.8071533631894], [2.370568173026915, 48.807153283519426], [2.370565968079172, 48.807153710119984], [2.370563678352515, 48.807153835575576], [2.370559870596143, 48.80715488982554], [2.370555908332403, 48.807155656421095], [2.370554010882323, 48.80715651219872], [2.37055189191556, 48.80715709887487], [2.370548763742129, 48.80715887873513], [2.370545354047624, 48.807160416556606], [2.370543949830672, 48.807161617741954], [2.370542209042842, 48.80716260821078], [2.370540066659571, 48.80716493945642], [2.370537543298838, 48.8071670979713], [2.370536769769624, 48.807168526984064], [2.370535577561131, 48.807169824291684], [2.370511044655767, 48.80720941722388], [2.369849606307477, 48.808117618476]]]}}]}