{"type": "FeatureCollection", "features": [{"type": "Feature", "properties": {}, "geometry": {"type": "Polygon", "coordinates": [[[2.369772765331516, 48.805492582734644], [2.369728636919586, 48.805538068431815], [2.370258880531702, 48.80573947670895], [2.370270819295055, 48.80574248819359], [2.370283582582607, 48.805742915368825], [2.370295921032998, 48.805740716419685], [2.370306626871137, 48.80573610659498], [2.370314652134241, 48.80572953713693], [2.370319211254038, 48.80572165111051], [2.370319857953499, 48.80571322045527], [2.37031652893102, 48.805705070422555], [2.37030955005612, 48.80569799879408], [2.370299604470446, 48.805692697789546], [2.369772765331516, 48.805492582734644]]]}}]}