{"type": "FeatureCollection", "features": [{"type": "Feature", "properties": {}, "geometry": {"type": "Polygon", "coordinates": [[[2.38675410392388, 48.80609346806915], [2.386698435093999, 48.80613296186784], [2.386742254331861, 48.80615978185253], [2.386742450378183, 48.80615990106176], [2.387421162254042, 48.806569904504435], [2.387434858649043, 48.80657537212773], [2.387554346547989, 48.806603865387146], [2.387566897943906, 48.80660545444751], [2.387579578445928, 48.80660440381196], [2.38759114679637, 48.80660081632415], [2.387600470603304, 48.80659504315281], [2.387606637187425, 48.806587649416805], [2.387609042921505, 48.806579358867005], [2.387607452317253, 48.80657098304036], [2.387602021075897, 48.806563341821075], [2.387593280846362, 48.80655718318445], [2.387582087183334, 48.806553109980136], [2.387470274365292, 48.80652644693848], [2.386797682299909, 48.80612014061556], [2.38675410392388, 48.80609346806915]]]}}]}