{"type": "FeatureCollection", "features": [{"type": "Feature", "properties": {}, "geometry": {"type": "Polygon", "coordinates": [[[2.369189931209262, 48.81762560021526], [2.369148927649786, 48.81767245476267], [2.369547930661166, 48.81779918227105], [2.369601673072405, 48.81781638881745], [2.370718984139529, 48.818197518188455], [2.370850814137175, 48.818181751512775], [2.369638713574192, 48.81776828902837], [2.369637786746511, 48.817767982640575], [2.369583520247368, 48.817750608301694], [2.369583458057129, 48.8177505958512], [2.369583404620273, 48.81775057142976], [2.369189931209262, 48.81762560021526]]]}}]}