{"type": "FeatureCollection", "features": [{"type": "Feature", "properties": {}, "geometry": {"type": "Polygon", "coordinates": [[[2.406404444383072, 48.81517664807581], [2.406344060567891, 48.81513972250264], [2.406023744179083, 48.81543138789249], [2.405645448326494, 48.81573179394576], [2.405332453686744, 48.81597492378697], [2.404587910559213, 48.8155637831726], [2.404540054045616, 48.815607695994444], [2.405311126417759, 48.81603348613794], [2.40531646839362, 48.81603559757929], [2.405321783974848, 48.8160377378761], [2.405321948856301, 48.81603776375778], [2.40532209427581, 48.81603782123551], [2.405328162786937, 48.81603873916713], [2.405334219697072, 48.81603968992843], [2.405334388619254, 48.81603968089504], [2.405334553816528, 48.816039705883], [2.405340754833961, 48.8160393404512], [2.405346960179628, 48.81603900860974], [2.405347116607238, 48.81603896554555], [2.405347285411588, 48.816038955597726], [2.405353011935138, 48.81603734257363], [2.405358758293482, 48.81603576061236], [2.405358886914293, 48.816035687732764], [2.405359042801933, 48.81603564382294], [2.405363734279453, 48.816032941100715], [2.405368459155741, 48.81603026387331], [2.405707843973097, 48.81576663441832], [2.405708129348423, 48.81576641028769], [2.406087432334528, 48.81546520418271], [2.406089092510031, 48.81546379328694], [2.406404444383072, 48.81517664807581]]]}}]}