{"type": "FeatureCollection", "features": [{"type": "Feature", "properties": {}, "geometry": {"type": "Polygon", "coordinates": [[[2.370984138068403, 48.81680023692489], [2.37105410781868, 48.81682811884813], [2.371105892629483, 48.816769363146804], [2.371216119686446, 48.81664606821827], [2.371387074247271, 48.81646096111696], [2.37138737626815, 48.8164606287442], [2.371729983572273, 48.816077374220455], [2.371847304217936, 48.81601639564061], [2.371857484582808, 48.81600860810798], [2.372130928906874, 48.81569346185942], [2.372135470700774, 48.815685571323925], [2.372136098074968, 48.815677140102125], [2.372132749619545, 48.8156689935008], [2.372125753106253, 48.81566192896579], [2.372115793403302, 48.81565663802242], [2.372103845435417, 48.81565363858455], [2.372091078751548, 48.81565322425768], [2.372078743041822, 48.81565543559891], [2.372068045809851, 48.815660056147074], [2.372060034174489, 48.815666633611265], [2.371790534611319, 48.815977233051775], [2.371673429475325, 48.81603809957633], [2.371663515134395, 48.81604558501672], [2.371317162200415, 48.816433029019855], [2.371146207749656, 48.81661813573706], [2.371145906246671, 48.816618467527135], [2.371035465524762, 48.81674200126829], [2.37103533699449, 48.816742146062545], [2.370984138068403, 48.81680023692489]]]}}]}