{"type": "FeatureCollection", "features": [{"type": "Feature", "properties": {}, "geometry": {"type": "Polygon", "coordinates": [[[2.36910392097663, 48.8061803188667], [2.369061078064576, 48.80622628776154], [2.369735092553884, 48.80648406987598], [2.369747017860447, 48.806487104824726], [2.369759779348144, 48.80648755709878], [2.369772127831803, 48.80648538242631], [2.369782854554198, 48.80648079367977], [2.369790909508242, 48.806474240038106], [2.369795504219296, 48.80646636301804], [2.369796188926401, 48.806457933677564], [2.369792896607501, 48.806449777139306], [2.369785949539317, 48.80644269182177], [2.369776027750044, 48.80643737128469], [2.36910392097663, 48.8061803188667]]]}}]}