{"type": "FeatureCollection", "features": [{"type": "Feature", "properties": {}, "geometry": {"type": "Polygon", "coordinates": [[[2.385823149946832, 48.810446779645396], [2.38576944589466, 48.8104075482179], [2.385763438230907, 48.81041041504739], [2.385630321176496, 48.810497870786456], [2.38562911740167, 48.810498959017806], [2.385627590103952, 48.81049985278007], [2.385625367721166, 48.810502348787494], [2.385622781395497, 48.810504686865904], [2.385622145687946, 48.81050596752396], [2.385621111305628, 48.810507129261396], [2.385620165500169, 48.81050995669026], [2.385618799674298, 48.81051270819992], [2.385618794261738, 48.810514055925], [2.38561835404753, 48.810515371918726], [2.385617604943868, 48.81052355835604], [2.385573942124719, 48.810522861114976], [2.385561518427053, 48.81052393211154], [2.38555017052484, 48.8105274396577], [2.385540965897865, 48.81053305380399], [2.385534770412063, 48.81054024643629], [2.385532166868803, 48.81054834095445], [2.385529062945099, 48.81058533137202], [2.385486935793077, 48.81059259069068], [2.385481591385841, 48.81059413450118], [2.385476184466884, 48.810595580242534], [2.385475748112426, 48.81059582241612], [2.385475225916682, 48.81059597325998], [2.385470865386285, 48.81059853229366], [2.385466399519859, 48.81060101081664], [2.385466097827952, 48.810601330196455], [2.38546567176562, 48.81060158023658], [2.385462721950949, 48.81060490399765], [2.385459634287138, 48.810608172687466], [2.385459496789502, 48.810608538010456], [2.385459208566542, 48.8106088627712], [2.385457958216273, 48.810612625907034], [2.385456550997649, 48.81061636480171], [2.385453030245227, 48.810643159816905], [2.385354907490077, 48.81073374829699], [2.385349246935689, 48.81074117709945], [2.385343508382383, 48.81075294768292], [2.385264614345601, 48.81074834660602], [2.385249325033347, 48.810750787781025], [2.385052541775483, 48.81065400482441], [2.385041222930905, 48.810650084351344], [2.385028623794277, 48.81064866591006], [2.385015977655125, 48.81064988834725], [2.385004522403884, 48.810653632002456], [2.384995379359232, 48.810659530421056], [2.384989443506041, 48.81066700622532], [2.384987295888032, 48.81067532763192], [2.384989146730769, 48.81068368008382], [2.38499481486265, 48.81069124598466], [2.385003745448556, 48.810697284730864], [2.385151353532851, 48.81076988219546], [2.38512698939457, 48.8107983235677], [2.385267313227805, 48.81088084638215], [2.385185109412204, 48.81095474563794], [2.385179246552819, 48.81096224653669], [2.385177180117847, 48.81097057690464], [2.3851791123861, 48.81097892130749], [2.385184854215468, 48.81098646293677], [2.385193843556793, 48.81099246356482], [2.385205200470731, 48.81099633580777], [2.385217813262349, 48.810997700623], [2.385230447301962, 48.81099642441273], [2.385241865879976, 48.81099263210146], [2.385250951265313, 48.810986694907506], [2.385326568143926, 48.810918717084625], [2.3854758053024, 48.810995350108165], [2.385455037682798, 48.81102447112725], [2.385456990511029, 48.81102545424165], [2.385343808012133, 48.811094721222815], [2.38534158833775, 48.81109658543293], [2.385339000104684, 48.81109822930085], [2.385266969001437, 48.81116108724471], [2.38521682163287, 48.81113680264382], [2.385206149149418, 48.81113309241667], [2.385194301457947, 48.81113160215412], [2.385182311249005, 48.811132461753246], [2.385171223635459, 48.811135596288054], [2.385162005056813, 48.811140732540366], [2.385130736608157, 48.811164189971464], [2.38505680780172, 48.811135411369634], [2.385040658036932, 48.81113184554427], [2.384988957538229, 48.81112798205586], [2.384986364299533, 48.81112805817611], [2.384983795045622, 48.81112781362052], [2.384858501505039, 48.81112896777649], [2.384845906987578, 48.81113040444408], [2.384834601070117, 48.81113434128383], [2.384825690453585, 48.811140392930966], [2.384820047371261, 48.81114796700866], [2.384818224208492, 48.81115632211387], [2.384820399430934, 48.81116464039085], [2.384826360114405, 48.811172107588526], [2.384835522786727, 48.81117799276506], [2.384846990541639, 48.81118171983776], [2.384859640834258, 48.81118292397438], [2.384982345172385, 48.811181793670535], [2.385022822410227, 48.81118481846512], [2.385118342170602, 48.81122200186052], [2.385131481655541, 48.81122526731741], [2.385145519080416, 48.81122540194086], [2.38515879657924, 48.8112223898314], [2.385169746036166, 48.81121658672896], [2.385198640336994, 48.81119491037373], [2.385232065197629, 48.81121109684802], [2.38522293673235, 48.81126568894848], [2.385223080386972, 48.8112677024222], [2.385222721017804, 48.81126970410723], [2.385227493175874, 48.81135036572943], [2.385073075135585, 48.81137745561984], [2.385071546384247, 48.81137790253091], [2.385069902751491, 48.8113781044031], [2.385065730512, 48.811379602727186], [2.385061387786813, 48.81138087226742], [2.385060142957527, 48.81138160931525], [2.38505867422125, 48.81138213676394], [2.385055407218014, 48.81138441328702], [2.385051871030189, 48.811386507019], [2.385051031975469, 48.81138746205632], [2.3850498819057, 48.8113882634512], [2.385047839935648, 48.811391095331615], [2.385045456431959, 48.8113938083065], [2.385045105284426, 48.81139488784763], [2.385044386458043, 48.81139588474267], [2.385043769403829, 48.81139899477639], [2.385042771898609, 48.81140206142944], [2.385042943031237, 48.811403159801436], [2.385042725812156, 48.81140425461367], [2.385043594075991, 48.81140733836901], [2.385044080212661, 48.81141045851493], [2.38504475687404, 48.81141146820149], [2.385045062525421, 48.81141255376305], [2.385047331116268, 48.81141530938054], [2.385049253309035, 48.81141817759762], [2.385050369263017, 48.81141899976354], [2.385051167865794, 48.81141996981208], [2.385054614718606, 48.811422127552476], [2.385057784810264, 48.81142446307947], [2.385059230819576, 48.81142501724536], [2.38506044420103, 48.811425776825665], [2.385168804740798, 48.81147490090303], [2.385180003759031, 48.81147846294694], [2.38519230628602, 48.81147963570893], [2.385204573308981, 48.81147831061043], [2.385215669102239, 48.81147461033388], [2.385224566377279, 48.811468877464314], [2.385302997488674, 48.81140002814902], [2.385309344303659, 48.81139185710237], [2.385310076491536, 48.81138821387155], [2.385314480433248, 48.81138560633638], [2.385320894992806, 48.811378305034424], [2.38532357948092, 48.811370051905044], [2.385322271122879, 48.81136165482231], [2.385317097991701, 48.81135393575105], [2.385309121220658, 48.81134805899064], [2.385304479847671, 48.8112696100477], [2.38531462920441, 48.81120891200558], [2.385401976485695, 48.81113268835053], [2.385515927234847, 48.81106295115408], [2.385523827860164, 48.81105631571947], [2.385525945429436, 48.81105251068996], [2.385564168550203, 48.8110187107797], [2.385566113388115, 48.811018108088696], [2.385575440069148, 48.81101233640887], [2.385581609845212, 48.81100494367342], [2.385582257400421, 48.811002715166005], [2.385650828408055, 48.810942079059544], [2.385650839307549, 48.81094115381503], [2.385700220750349, 48.81089826523117], [2.385702350688646, 48.81089843659148], [2.385785610670553, 48.810881356520966], [2.385713040888145, 48.810837539633894], [2.385687632964557, 48.810822927735956], [2.385717121366159, 48.81080135724146], [2.385662594640824, 48.810776941486395], [2.385605857098716, 48.81078509736874], [2.385563778460304, 48.810789708228285], [2.385453879255971, 48.81073514000472], [2.385453426052958, 48.810734835980355], [2.385525984811337, 48.81066854955151], [2.385531081628407, 48.81066219839109], [2.385533458508397, 48.81065518377503], [2.385535453844413, 48.810639997911444], [2.385578515083852, 48.81063257761979], [2.385590255758525, 48.81062918200802], [2.385599825463048, 48.810623550680006], [2.385606282145048, 48.8106162379904], [2.385608990202625, 48.81060796380885], [2.385611551547037, 48.810577438934814], [2.385655016874945, 48.81057813300776], [2.385667401361242, 48.81057706954196], [2.385678720631137, 48.81057358449626], [2.385687916746408, 48.81056800359521], [2.385694130206994, 48.81056084844917], [2.385696780282806, 48.810552787802685], [2.385698967693537, 48.81052888270792], [2.3858210560548, 48.81044867256828], [2.385823149946832, 48.810446779645396]]]}}]}