{"type": "FeatureCollection", "features": [{"type": "Feature", "properties": {}, "geometry": {"type": "Polygon", "coordinates": [[[2.382503115761427, 48.8081099666912], [2.382577916020113, 48.808088080045906], [2.382534322670551, 48.80803137391773], [2.382524661343643, 48.808023204821126], [2.382312321437932, 48.807901589933905], [2.382311439733835, 48.80790109917408], [2.381154648972316, 48.80727543820111], [2.381148293676128, 48.807272613929996], [2.380891333203332, 48.807180256984296], [2.380850960279339, 48.80716161372685], [2.380811954159959, 48.807140985063555], [2.380795141955216, 48.80712504411725], [2.380782473772824, 48.8071039746067], [2.380782733309731, 48.807082114374225], [2.380786323802327, 48.807070173687706], [2.380792237718555, 48.80706346047485], [2.381111749841124, 48.80680871839953], [2.381118263123625, 48.8068014555171], [2.381121059790429, 48.80679321865598], [2.381119866085978, 48.80678481409777], [2.381114798860207, 48.806777064539055], [2.381106354129749, 48.806770728560245], [2.381095358523894, 48.80676642637051], [2.381082888368264, 48.80676457909762], [2.381070164326899, 48.80676536756527], [2.381058431915799, 48.806768714592884], [2.381048839583835, 48.8067742925505], [2.380727174210454, 48.807030751129055], [2.38072332365839, 48.80703439459987], [2.380712281771985, 48.807046928835284], [2.380707522378156, 48.80705524223322], [2.380701851928726, 48.80707410001235], [2.380701070577437, 48.80707914455787], [2.380700718177252, 48.8071088225465], [2.380703601183602, 48.80711899275533], [2.380720959629447, 48.80714786310475], [2.380725406210871, 48.80715332672704], [2.380748296312727, 48.80717503062128], [2.380756282842432, 48.80718066999159], [2.380800936457745, 48.8072042853861], [2.380803062158765, 48.80720533654584], [2.380846396968252, 48.8072253475389], [2.380850277641158, 48.807226934062946], [2.381105866822669, 48.80731879816811], [2.382259235482318, 48.80794260854849], [2.382465098666851, 48.80806051405618], [2.382503115761427, 48.8081099666912]]]}}]}