{"type": "FeatureCollection", "features": [{"type": "Feature", "properties": {}, "geometry": {"type": "Polygon", "coordinates": [[[2.369699947969111, 48.81409931695074], [2.369664353538501, 48.814147937035465], [2.369718107580231, 48.814166895282234], [2.369795598062613, 48.81419518316093], [2.369970891233604, 48.81427966114412], [2.369974003246513, 48.8142810215316], [2.370059390656131, 48.81431474864262], [2.370064552884887, 48.814316472512765], [2.370117486821661, 48.81433114153344], [2.370122147577686, 48.814332219358604], [2.37017046496555, 48.814341269010406], [2.370206073197866, 48.814356708021585], [2.370268601266541, 48.814387974753885], [2.370270601609057, 48.814388913939666], [2.370309885706267, 48.814406209128876], [2.370321705415048, 48.81440977287154], [2.370362470729239, 48.814417182626535], [2.370371784938593, 48.814418131046644], [2.37041397213971, 48.814419172903754], [2.370511554266432, 48.81443478101332], [2.370613564569038, 48.81446269733477], [2.370696036365612, 48.81449343309582], [2.370782390857538, 48.81454242193155], [2.370618211321843, 48.81475828120688], [2.370614331422577, 48.81476632431433], [2.370614404868009, 48.814774765577674], [2.370618424470641, 48.81478277870725], [2.370625996765256, 48.81478957932173], [2.370636380523444, 48.81479450172906], [2.370648559310018, 48.81479706408916], [2.370661340978975, 48.81479701558], [2.37067347436965, 48.81479436095004], [2.370683771779736, 48.81478936005325], [2.370691225226435, 48.81478250241288], [2.370869733554051, 48.81454780346467], [2.370873714930579, 48.814539293261745], [2.370873283638145, 48.81453039067077], [2.370868486683953, 48.81452206595377], [2.37085984687279, 48.814515226391954], [2.370746231016067, 48.81445077226553], [2.370739688546778, 48.81444774125826], [2.370651566146667, 48.81441489962737], [2.370647127469106, 48.81441347165234], [2.37053989742145, 48.81438412688927], [2.370533874606256, 48.814382829796], [2.370429216157404, 48.81436608983946], [2.37042112643329, 48.814365350581184], [2.3703795786669, 48.814364324517065], [2.370349731546049, 48.81435889932067], [2.370316944274653, 48.81434446442323], [2.370254301519644, 48.81431314035524], [2.370252061427587, 48.81431209641826], [2.370210064808828, 48.814293887536294], [2.370198790363871, 48.81429048490261], [2.370146820182474, 48.81428075109977], [2.370098840998838, 48.81426745513906], [2.370017545216343, 48.814235344185235], [2.369841688416603, 48.81415059460478], [2.369837370253402, 48.814148776024176], [2.369757375840952, 48.81411957409446], [2.369757095110685, 48.814119506864415], [2.369756856948735, 48.814119387893555], [2.369699947969111, 48.81409931695074]]]}}]}