{"type": "FeatureCollection", "features": [{"type": "Feature", "properties": {}, "geometry": {"type": "Polygon", "coordinates": [[[2.380625458410438, 48.815852313799304], [2.380623166517688, 48.81584400920884], [2.380617100915312, 48.815836578795235], [2.380607855347756, 48.81583074989865], [2.379100302833415, 48.81514209864394], [2.379088782579017, 48.81513844168933], [2.379076115028779, 48.81513731476455], [2.379063540168989, 48.8151388281807], [2.379052288912801, 48.815142833794276], [2.379043462610544, 48.81514893950839], [2.379037925242264, 48.815156547653814], [2.37903621884531, 48.81516491349269], [2.379038510455493, 48.81517321811856], [2.379044575755779, 48.81518064861661], [2.379053821033335, 48.81518647763744], [2.380561374216826, 48.81587512945111], [2.380572894737238, 48.81587878626145], [2.380585562499938, 48.815879913026905], [2.38059813749426, 48.81587839945166], [2.380609388790409, 48.81587439369524], [2.380618215032104, 48.81586828786946], [2.3806237522454, 48.815860679655664], [2.380625458410438, 48.815852313799304]]]}}]}