{"type": "FeatureCollection", "features": [{"type": "Feature", "properties": {}, "geometry": {"type": "Polygon", "coordinates": [[[2.399102989608222, 48.81875112179798], [2.399173378920574, 48.818827501929874], [2.399315981236636, 48.81880851258781], [2.399332880243093, 48.81880567710021], [2.399402604332425, 48.81878264352818], [2.399403616069105, 48.818782297567594], [2.399478760612311, 48.818755718183965], [2.399529287964641, 48.81873800873442], [2.39953001438335, 48.818737747874415], [2.400101722515894, 48.818527465100864], [2.400102794632294, 48.81852705658324], [2.400349964895621, 48.81842954961505], [2.400860955267438, 48.818239852163536], [2.401078335060959, 48.818160028112615], [2.401079604218914, 48.81815954216093], [2.401420282285796, 48.81802364332607], [2.401427142944677, 48.818020206386834], [2.401569912882855, 48.81793156586087], [2.401517783340086, 48.817889866577815], [2.401374326633908, 48.81797893344793], [2.401037982835043, 48.818113103267905], [2.400821161361711, 48.818192722278035], [2.400820995573582, 48.81819278349046], [2.400341817611549, 48.81837067112795], [2.400181565257407, 48.818218507491686], [2.400118952065037, 48.81815420794443], [2.400117858860282, 48.818144230928965], [2.400124252524736, 48.81813238291303], [2.400245968951058, 48.818017664415095], [2.400396796666853, 48.817885494166724], [2.400397042489288, 48.817885416447204], [2.400406301910937, 48.81787959690784], [2.400595929504939, 48.817715907336456], [2.400772310376058, 48.81780409261292], [2.400773688162017, 48.81780475211124], [2.400860421702902, 48.81784447559139], [2.400871893916571, 48.81785026004909], [2.400876257568817, 48.817851728316576], [2.400888844594281, 48.81785749309067], [2.400894283284085, 48.817859593555994], [2.400922778467683, 48.81786873010823], [2.400934329400058, 48.817871117629444], [2.400971057590427, 48.817874899151164], [2.400981555070736, 48.81787507802195], [2.401006088744964, 48.81787340217251], [2.401019000611924, 48.81787106376137], [2.401042234430259, 48.81786398512529], [2.401048898025278, 48.81786142606745], [2.401059374000879, 48.81785647450446], [2.401075618950658, 48.81785180370159], [2.401079398053584, 48.81785055996914], [2.401197997749926, 48.81780633479719], [2.401336456797637, 48.81775735674281], [2.401285587812898, 48.81771413595622], [2.40115901372622, 48.81775890984256], [2.401158647329925, 48.81775909334074], [2.401158216472003, 48.81775919945057], [2.401131774458804, 48.81776905954587], [2.401129572680095, 48.81774717904403], [2.401127812146078, 48.81774094012562], [2.401117175723304, 48.817718402400686], [2.401113362303341, 48.81771272477271], [2.401097226929711, 48.81769465639289], [2.401086206087277, 48.81768660976295], [2.401061827450623, 48.81767479573408], [2.401048970200708, 48.8176706224813], [2.401014996797597, 48.817664156648114], [2.401001725887423, 48.81766313242739], [2.400977606654768, 48.81766389615703], [2.400939869440109, 48.817664596937234], [2.400930695973344, 48.81766546151819], [2.400895216102427, 48.81767157939657], [2.400884498692942, 48.81767455661614], [2.400859872108764, 48.817684326377815], [2.400847090012307, 48.81769231846159], [2.400833316713676, 48.81770574011477], [2.400829320395443, 48.81771066602581], [2.400818219077443, 48.81772859795695], [2.400815565122552, 48.817735115531505], [2.4008112419463, 48.81775577956226], [2.400811244863487, 48.81775587690009], [2.40064557902944, 48.81767304884961], [2.400829670018834, 48.81751413692656], [2.400912360962202, 48.817446259192245], [2.400857711935914, 48.81740503291031], [2.400765690979298, 48.81748056922508], [2.400765440129838, 48.817480858281606], [2.400765074687811, 48.8174810879656], [2.400566693360706, 48.81765233543373], [2.400560955392573, 48.81765418031749], [2.40055174521224, 48.81766005094429], [2.400180285986329, 48.817985561693334], [2.400179454130464, 48.81798631752828], [2.400054161143889, 48.81810440680969], [2.400049135956746, 48.81811083193066], [2.400038003242602, 48.81813146176064], [2.40003573902256, 48.81814246595674], [2.400038204015543, 48.818164962770055], [2.400040195433411, 48.818171550256835], [2.400044589425014, 48.818177608694775], [2.400113236349092, 48.81824810458216], [2.400114058763618, 48.818248916456476], [2.400270931679247, 48.818397871423336], [2.400061420097359, 48.81848052222253], [2.39949061427518, 48.818690473062105], [2.399440383684445, 48.81870807849506], [2.399440246864129, 48.81870812666944], [2.399365536244534, 48.81873455256439], [2.3993043023187, 48.81875478138329], [2.399102989608222, 48.81875112179798]], [[2.400918280776548, 48.81780530628452], [2.400914454606626, 48.81780355392393], [2.400907412806812, 48.81779843881521], [2.400899507327078, 48.817789407666304], [2.400895940716668, 48.81777778308873], [2.400892885422643, 48.81775981809379], [2.400895803544449, 48.817745869875594], [2.400903345957785, 48.81773368660578], [2.400909676583908, 48.81772751759931], [2.400921542598216, 48.817722810159225], [2.400946827722491, 48.81771845018498], [2.400980307837341, 48.817717828458434], [2.400981116165227, 48.81771780815732], [2.400998875439809, 48.81771724581478], [2.4010193506118, 48.81772114265879], [2.401031102395204, 48.8177268376437], [2.401040573034007, 48.81773744287352], [2.401048361129361, 48.81775394527368], [2.40105019156779, 48.817772135808134], [2.40104746941033, 48.81778407199409], [2.401039657188072, 48.817794753109254], [2.401026767319322, 48.81780552772174], [2.401018837606694, 48.81780927577165], [2.401010651982141, 48.81781162932784], [2.400981770516942, 48.81781488607317], [2.400957096394376, 48.817814083275664], [2.400934270285334, 48.817810686378174], [2.400918280776548, 48.81780530628452]]]}}]}