{"type": "FeatureCollection", "features": [{"type": "Feature", "properties": {}, "geometry": {"type": "Polygon", "coordinates": [[[2.397633736254471, 48.81495578434215], [2.397552175019921, 48.814952234087365], [2.397548029977178, 48.815023213963016], [2.397548012261203, 48.81502358282402], [2.397544916610777, 48.81510577235783], [2.397463669254988, 48.81511510580819], [2.397338841114959, 48.81510588200308], [2.397327625083321, 48.81510607706427], [2.397316912378141, 48.815108279780446], [2.397307510993847, 48.81511232401414], [2.397300130020281, 48.81511790473323], [2.397045219751737, 48.81537474165777], [2.397039912673292, 48.81538258223646], [2.397038605385154, 48.81539112702001], [2.397041430347985, 48.81539951022283], [2.397048101328989, 48.81540688243087], [2.397057942403255, 48.81541249666709], [2.397274817198052, 48.81550083001976], [2.397275528975868, 48.815501026302314], [2.397276132458108, 48.81550134355536], [2.397923156464381, 48.81574330010977], [2.397830018442297, 48.815825163769894], [2.397828583421196, 48.815826508580685], [2.397800464070063, 48.8158546445086], [2.397871514905618, 48.815881511413934], [2.397896091748392, 48.81585692004993], [2.397994011636448, 48.81577085326475], [2.398335037660834, 48.81590998104928], [2.398346829190083, 48.81591323941399], [2.398359568257564, 48.81591393193028], [2.398372007872763, 48.81591199080974], [2.398382930357816, 48.815907606063], [2.398391266542927, 48.81590120690017], [2.398396200424494, 48.81589341971645], [2.398397249041116, 48.81588500677608], [2.398394309748722, 48.81587679159637], [2.39838767026739, 48.81586957833607], [2.398377980516667, 48.81586407307885], [2.398013143182806, 48.815715231015716], [2.397925299385602, 48.815624606207734], [2.397920051689423, 48.815620255761615], [2.397556055337795, 48.815375272848804], [2.397490830579492, 48.81531508428709], [2.397503853270277, 48.81516526113193], [2.397578805856123, 48.81515665079051], [2.397670750778422, 48.815186584409865], [2.397696215331755, 48.815313642459614], [2.397700552300981, 48.8153226540672], [2.397709331200596, 48.81533012396577], [2.397941966532825, 48.81546890079004], [2.397951625414347, 48.815473187639775], [2.398000472670477, 48.8154887230565], [2.398012032148103, 48.815491085893484], [2.398024132610642, 48.815491108930175], [2.398035712523843, 48.81548879014562], [2.398120453749745, 48.81546223535806], [2.398131682800141, 48.81545703348337], [2.398139672026715, 48.81544967037369], [2.398143520902003, 48.81544097598337], [2.398142795591097, 48.815431930325474], [2.398137577851726, 48.81542355300679], [2.397867143649402, 48.815137987212026], [2.39785911652701, 48.815131821630324], [2.397848672465603, 48.81512751545819], [2.39783676006088, 48.81512545980926], [2.397824461272153, 48.81512584139045], [2.397713978351848, 48.81514049592002], [2.397626415796871, 48.815111989041], [2.397629687974473, 48.81502510910549], [2.397633736254471, 48.81495578434215]], [[2.397354704601141, 48.815161352167], [2.39742191868118, 48.815166318754116], [2.397409054025903, 48.81531432106396], [2.39728380995149, 48.81544109428744], [2.397136578830825, 48.81538112690281], [2.397354704601141, 48.815161352167]], [[2.39785876523788, 48.815656053530496], [2.397860522939876, 48.81565786688486], [2.397354251927894, 48.81546854515067], [2.397450776302091, 48.815370842207045], [2.397491453479315, 48.815408378598136], [2.397495515529285, 48.81541157293544], [2.39785876523788, 48.815656053530496]], [[2.397753904010147, 48.81519023901518], [2.397812849943903, 48.81518242038758], [2.398043971554775, 48.81542647432772], [2.398018329388209, 48.815434509635786], [2.397992374251394, 48.81542625484473], [2.397775246561474, 48.81529672907863], [2.397753904010147, 48.81519023901518]]]}}]}