{
"type": "FeatureCollection",
"features": [
{ "type": "Feature", "properties": { }, "geometry": { "coordinates": [ [ [ 2.395082877067892, 48.810584041258856 ], [ 2.392645111015154, 48.809394905754267 ], [ 2.390982162011603, 48.810826361739949 ], [ 2.389774148211832, 48.810030741810067 ], [ 2.389595519458894, 48.809940986006886 ], [ 2.388633849776657, 48.810568038989054 ], [ 2.386449431462376, 48.809248393311378 ], [ 2.385246614832802, 48.810198935472954 ], [ 2.384780496052383, 48.809928495988352 ], [ 2.384312422943493, 48.809384051507266 ], [ 2.383611397184921, 48.808793659089226 ], [ 2.381759372579062, 48.810117252193827 ], [ 2.380422500369952, 48.809534945939184 ], [ 2.38003745366437, 48.810587311067714 ], [ 2.380338704193366, 48.810943177569818 ], [ 2.380359283663428, 48.811156533022803 ], [ 2.380252451827837, 48.811484479876093 ], [ 2.379649475588253, 48.812195544111781 ], [ 2.379585061868255, 48.812437005561208 ], [ 2.37967197755282, 48.812664935809408 ], [ 2.379865965671441, 48.812836677794266 ], [ 2.380670518468225, 48.813204705919453 ], [ 2.38088657194433, 48.813315798899097 ], [ 2.380251116375069, 48.813862924532231 ], [ 2.381926585555688, 48.81455402685075 ], [ 2.382208604173793, 48.814285527266222 ], [ 2.382288548278261, 48.814307956382663 ], [ 2.383025080031612, 48.814608618093587 ], [ 2.383635747320977, 48.814857669196712 ], [ 2.383635747320977, 48.814857669196712 ], [ 2.383756527229981, 48.814911523079964 ], [ 2.384057176821135, 48.814581246614786 ], [ 2.384215363067417, 48.814641822412895 ], [ 2.385770106661792, 48.815245327934562 ], [ 2.385302988058024, 48.815762089224826 ], [ 2.385053305732033, 48.816038444204324 ], [ 2.384980260838653, 48.816120452038568 ], [ 2.385039795394544, 48.816145131662388 ], [ 2.384830874826619, 48.816378797079196 ], [ 2.384808783050549, 48.816401264682291 ], [ 2.384778217846431, 48.816443950686242 ], [ 2.388392969796662, 48.817731553332536 ], [ 2.395082877067892, 48.810584041258856 ] ] ], "type": "Polygon"} }]
}
