{
"type": "FeatureCollection",
"features": [
{ "type": "Feature", "properties": { }, "geometry": {"coordinates": [ [ [ 2.383956540888518, 48.823289898499212 ], [ 2.388793330446852, 48.825007077195501 ], [ 2.39015123529708, 48.825681359438136 ], [ 2.394168627591081, 48.822886604071492 ], [ 2.395898708155656, 48.821878426565966 ], [ 2.396857231376931, 48.821352381229801 ], [ 2.3977205998443, 48.820912846929296 ], [ 2.400344976438233, 48.819849097996816 ], [ 2.405609253618231, 48.81814701466692 ], [ 2.40712895388881, 48.817751931975195 ], [ 2.40734823520866, 48.817696771829752 ], [ 2.407637157910875, 48.817588789173044 ], [ 2.407926058641632, 48.81745834581524 ], [ 2.408446047674297, 48.817203109416027 ], [ 2.409176564661993, 48.81673437280638 ], [ 2.409446689443282, 48.816561265668049 ], [ 2.4096776504723, 48.816360108135818 ], [ 2.410079908277866, 48.815848902217112 ], [ 2.410183276453938, 48.815607397779864 ], [ 2.410259142678796, 48.815160408136627 ], [ 2.410238802767908, 48.814048683257468 ], [ 2.410211197420445, 48.813778066279482 ], [ 2.410004132821188, 48.812869717943094 ], [ 2.408977037895624, 48.809256661729222 ], [ 2.408913741024649, 48.808987188111658 ], [ 2.408870982935847, 48.808814278708986 ], [ 2.408862344071103, 48.808714340208851 ], [ 2.40884164696539, 48.808508849978722 ], [ 2.404165641202411, 48.808111913101492 ], [ 2.404160502595837, 48.808089457138927 ], [ 2.405267673602875, 48.804626695335237 ], [ 2.40498500852988, 48.804286605071724 ], [ 2.404368189617766, 48.804508194206143 ], [ 2.402266676532388, 48.804290433299748 ], [ 2.402240838921553, 48.804038903271426 ], [ 2.400617321200709, 48.8040353252469 ], [ 2.400318734555222, 48.804519489630714 ], [ 2.400318734555222, 48.804519489630714 ], [ 2.395082877067892, 48.810584041258856 ], [ 2.388392969796662, 48.817731553332536 ], [ 2.383956540888518, 48.823289898499212 ] ] ], "type": "Polygon" } }]
}
