{
"type": "FeatureCollection",
"features": [
{ "type": "Feature", "properties": { }, "geometry": { "coordinates":  [ [ [ 2.380251116375069, 48.813862924532231 ], [ 2.379924968833088, 48.814244855216032 ], [ 2.378980320204237, 48.815140209038205 ], [ 2.378881671320217, 48.815095328129154 ], [ 2.377889405816844, 48.81604234686656 ], [ 2.377809541807229, 48.816118735639229 ], [ 2.37736768337313, 48.816425463694642 ], [ 2.377257246959106, 48.816542289574706 ], [ 2.376003403767559, 48.817928465264117 ], [ 2.375906564339542, 48.818049777593025 ], [ 2.375612618297059, 48.818350832104464 ], [ 2.375539574811585, 48.818454169801306 ], [ 2.375418955208261, 48.818615917855297 ], [ 2.375237186793821, 48.818858539637901 ], [ 2.375242293454512, 48.818859660980017 ], [ 2.375140366407803, 48.818993327035862 ], [ 2.375133557373122, 48.818992207227829 ], [ 2.375029927026227, 48.819126997087643 ], [ 2.375024833960917, 48.819125875810144 ], [ 2.374922891024889, 48.819262910489769 ], [ 2.374846456366998, 48.819358388926339 ], [ 2.374837945314543, 48.819356146471165 ], [ 2.374792082063079, 48.819420170574965 ], [ 2.374713928230868, 48.819523508737454 ], [ 2.37466297001429, 48.819590902757142 ], [ 2.374589911875299, 48.819686379606551 ], [ 2.375460820213242, 48.819971324815576 ], [ 2.380749369124819, 48.821698799615049 ], [ 2.3815050900425, 48.822411591773083 ], [ 2.383956540888518, 48.823289898499212 ], [ 2.388392969796662, 48.817731553332536 ], [ 2.384778217846431, 48.816443950686242 ], [ 2.384808783050549, 48.816401264682291 ], [ 2.384830874826619, 48.816378797079196 ], [ 2.385039795394544, 48.816145131662388 ], [ 2.384980260838653, 48.816120452038568 ], [ 2.385053305732033, 48.816038444204324 ], [ 2.385302988058024, 48.815762089224826 ], [ 2.385770106661792, 48.815245327934562 ], [ 2.384215363067417, 48.814641822412895 ], [ 2.384057176821135, 48.814581246614786 ], [ 2.383756527229981, 48.814911523079964 ], [ 2.383635747320977, 48.814857669196712 ], [ 2.383635747320977, 48.814857669196712 ], [ 2.383025080031612, 48.814608618093587 ], [ 2.382288548278261, 48.814307956382663 ], [ 2.382208604173793, 48.814285527266222 ], [ 2.381926585555688, 48.81455402685075 ], [ 2.380251116375069, 48.813862924532231 ] ] ] ,"type": "Polygon" } }
]
}
