{
"type": "FeatureCollection",
"features": [
{ "type": "Feature", "properties": { }, "geometry": { "coordinates": [ [ [ 2.381759372579062, 48.810117252193827 ], [ 2.383611397184921, 48.808793659089226 ], [ 2.384312422943493, 48.809384051507266 ], [ 2.384780496052383, 48.809928495988352 ], [ 2.385246614832802, 48.810198935472954 ], [ 2.386449431462376, 48.809248393311378 ], [ 2.388633849776657, 48.810568038989054 ], [ 2.389595519458894, 48.809940986006886 ], [ 2.389774148211832, 48.810030741810067 ], [ 2.390982162011603, 48.810826361739949 ], [ 2.392645111015154, 48.809394905754267 ], [ 2.392708045432896, 48.809421826160758 ], [ 2.395082877067892, 48.810584041258856 ], [ 2.400318734555222, 48.804519489630714 ], [ 2.3996537676824, 48.804321091234861 ], [ 2.399551656711012, 48.804231309853371 ], [ 2.399404752492166, 48.80367102989738 ], [ 2.39834661801136, 48.801686195773563 ], [ 2.397353073526739, 48.802449219427622 ], [ 2.397028164117533, 48.802273084169649 ], [ 2.397023043490907, 48.802256241581418 ], [ 2.389510642660235, 48.805205474576297 ], [ 2.388755964307463, 48.805347311661258 ], [ 2.387873876455186, 48.805590267976903 ], [ 2.387901141968708, 48.805658757115665 ], [ 2.387766967352112, 48.805783465217793 ], [ 2.387704052602252, 48.80577001776809 ], [ 2.387160365051835, 48.806100409145543 ], [ 2.387692855672473, 48.806458401174453 ], [ 2.387310604203394, 48.806738188010776 ], [ 2.387237466181354, 48.806693300887225 ], [ 2.386673416095532, 48.807096691811125 ], [ 2.385704920810745, 48.807683296722487 ], [ 2.38507382663683, 48.807327582913111 ], [ 2.384815604710508, 48.807526455554651 ], [ 2.383524342281901, 48.80843771274558 ], [ 2.383330635877211, 48.808551210867456 ], [ 2.383611397184921, 48.808793659089226 ], [ 2.381759372579062, 48.810117252193827 ] ] ], "type": "Polygon" } }
]
}
