{
"type": "FeatureCollection",
"features": [
{ "type": "Feature", "properties": { }, "geometry": { "coordinates": [ [ [ 2.367854217145353, 48.808932610302683 ], [ 2.367942597204771, 48.808879807186948 ], [ 2.370878216126383, 48.808015418358949 ], [ 2.373378143049501, 48.808982650256247 ], [ 2.375063525439154, 48.809634548201018 ], [ 2.376247291449975, 48.810167558263146 ], [ 2.376371316151474, 48.810059710462298 ], [ 2.377339094332653, 48.810497331823477 ], [ 2.378367013207574, 48.809613190552248 ], [ 2.38003745366437, 48.810587311067714 ], [ 2.380422500369952, 48.809534945939184 ], [ 2.381759372579062, 48.810117252193827 ], [ 2.383611397184921, 48.808793659089226 ], [ 2.383330635877211, 48.808551210867456 ], [ 2.383524342281901, 48.80843771274558 ], [ 2.384815604710508, 48.807526455554651 ], [ 2.38507382663683, 48.807327582913111 ], [ 2.385704920810745, 48.807683296722487 ], [ 2.386673416095532, 48.807096691811125 ], [ 2.387237466181354, 48.806693300887225 ], [ 2.387310604203394, 48.806738188010776 ], [ 2.387692855672473, 48.806458401174453 ], [ 2.387160365051835, 48.806100409145543 ], [ 2.387704052602252, 48.80577001776809 ], [ 2.387766967352112, 48.805783465217793 ], [ 2.387901141968708, 48.805658757115665 ], [ 2.387873876455186, 48.805590267976903 ], [ 2.388755964307463, 48.805347311661258 ], [ 2.389510642660235, 48.805205474576297 ], [ 2.397023043490907, 48.802256241581418 ], [ 2.396592292492481, 48.801701722039738 ], [ 2.396139499908191, 48.801189884223774 ], [ 2.395018170491061, 48.800250534601815 ], [ 2.394580894139981, 48.799904880708716 ], [ 2.393859022750396, 48.800401593718867 ], [ 2.393702824124947, 48.800570115928025 ], [ 2.393668844847218, 48.800593715013164 ], [ 2.393626384264512, 48.800621810967364 ], [ 2.393609394509963, 48.800630802781527 ], [ 2.393568607924526, 48.80064429878162 ], [ 2.393521027856344, 48.800652183049046 ], [ 2.393504024244895, 48.800653312804883 ], [ 2.393480227172876, 48.800649956802637 ], [ 2.393463209718187, 48.800643226308289 ], [ 2.393439398665016, 48.800626394616827 ], [ 2.393116216377558, 48.800443510446925 ], [ 2.39309239204607, 48.800431168082959 ], [ 2.393061788115944, 48.800422200178062 ], [ 2.393037991242359, 48.800421088820045 ], [ 2.393012492667217, 48.800421101628309 ], [ 2.392968302614948, 48.800432352689313 ], [ 2.392898641381203, 48.80045484573499 ], [ 2.392845956289344, 48.800467224599608 ], [ 2.392745691254137, 48.800494223392633 ], [ 2.391738074375971, 48.79933243982962 ], [ 2.391653139650268, 48.799374030453926 ], [ 2.390751030329068, 48.799856209620962 ], [ 2.390557267340868, 48.799874267817756 ], [ 2.390343123756785, 48.799918163334191 ], [ 2.390159622531881, 48.800003594011251 ], [ 2.39003730131348, 48.800068783199492 ], [ 2.390008491942831, 48.800139542719478 ], [ 2.38961924765087, 48.800177904496387 ], [ 2.389131258549452, 48.800051232195599 ], [ 2.388879921291622, 48.800297275524862 ], [ 2.388611476860341, 48.800428783503136 ], [ 2.38795528256707, 48.800396511759686 ], [ 2.386840090567225, 48.800340853375985 ], [ 2.386653340152657, 48.800567774914953 ], [ 2.386607619296464, 48.800746345401684 ], [ 2.386429751584038, 48.801379775052411 ], [ 2.386302720045097, 48.80184810642919 ], [ 2.385614943488108, 48.804318927991169 ], [ 2.383882110590853, 48.803776134060989 ], [ 2.383351550568877, 48.803597797828431 ], [ 2.382752930393106, 48.803371198667755 ], [ 2.382149136145916, 48.803036794159439 ], [ 2.381388760404543, 48.802495820994615 ], [ 2.380689760323079, 48.802134495290829 ], [ 2.379317301108436, 48.80141967976683 ], [ 2.375761182972457, 48.805982426035271 ], [ 2.371293758583241, 48.804063576721951 ], [ 2.371171334229023, 48.804032169445399 ], [ 2.370247148490953, 48.804980223975249 ], [ 2.370376387947534, 48.805029596901534 ], [ 2.369910727657957, 48.80527566234764 ], [ 2.368723163907336, 48.806480937970349 ], [ 2.367912754318005, 48.80737279505405 ], [ 2.367146435010542, 48.808092819536157 ], [ 2.36712094581408, 48.808120900309561 ], [ 2.368185476814686, 48.808486703395459 ], [ 2.367854217145353, 48.808932610302683 ] ] ],"type": "Polygon" } }
]
}
