{
"type": "FeatureCollection",
"features": [
{ 
 "type": "Feature", 
 "properties": { }, 
 "geometry": {
  "coordinates": [ [ [ 2.364222109297728, 48.811130051856765 ], [ 2.364211914168088, 48.811123315203552 ], [ 2.364222109297728, 48.811130051856765 ], [ 2.36468645804224, 48.81144212549043 ], [ 2.364989178683171, 48.811581299418556 ], [ 2.366213573956668, 48.811923500117054 ], [ 2.364966745882207, 48.814038355410169 ], [ 2.36508748739441, 48.814072015381576 ], [ 2.364503100568035, 48.815051384415625 ], [ 2.364703779300131, 48.815111975677311 ], [ 2.364642621701929, 48.815187230306357 ], [ 2.364600264822305, 48.815496056025246 ], [ 2.364807750731447, 48.815563382961138 ], [ 2.364649736122346, 48.815774540343369 ], [ 2.364216447278823, 48.816351848358927 ], [ 2.367083899322251, 48.81722592454625 ], [ 2.370213426465963, 48.818236854639849 ], [ 2.374589911875299, 48.819686379606551 ], [ 2.374635787694451, 48.81962684691959 ], [ 2.374713928230868, 48.819523508737454 ], [ 2.37477168526347, 48.81944712776604 ], [ 2.374837945314543, 48.819356146471165 ], [ 2.374846456366998, 48.819358388926339 ], [ 2.374846456366998, 48.819358388926339 ], [ 2.374922891024889, 48.819262910489769 ], [ 2.375024833960917, 48.819125875810144 ], [ 2.375029927026227, 48.819126997087643 ], [ 2.375040118869846, 48.819112395167409 ], [ 2.375133557373122, 48.818992207227829 ], [ 2.375140366407803, 48.818993327035862 ], [ 2.375242293454512, 48.818859660980017 ], [ 2.375237186793821, 48.818858539637901 ], [ 2.375418955208261, 48.818615917855297 ], [ 2.375449542208263, 48.818576603320281 ], [ 2.375539574811585, 48.818454169801306 ], [ 2.375612618297059, 48.818350832104464 ], [ 2.375906564339542, 48.818049777593025 ], [ 2.376003403767559, 48.817928465264117 ], [ 2.377257246959106, 48.816542289574706 ], [ 2.37736768337313, 48.816425463694642 ], [ 2.377809541807229, 48.816118735639229 ], [ 2.377889405816844, 48.81604234686656 ], [ 2.378881671320217, 48.815095328129154 ], [ 2.378980320204237, 48.815140209038205 ], [ 2.379275951208102, 48.814860481893341 ], [ 2.379629345080384, 48.814524584050289 ], [ 2.379899484746745, 48.814268447539838 ], [ 2.380251116375069, 48.813862924532231 ], [ 2.38088657194433, 48.813315798899097 ], [ 2.380670518468225, 48.813204705919453 ], [ 2.379865965671441, 48.812836677794266 ], [ 2.37967197755282, 48.812664935809408 ], [ 2.379585061868255, 48.812437005561208 ], [ 2.379649475588253, 48.812195544111781 ], [ 2.380252451827837, 48.811484479876093 ], [ 2.380359283663428, 48.811156533022803 ], [ 2.380338704193366, 48.810943177569818 ], [ 2.38003745366437, 48.810587311067714 ], [ 2.378367013207574, 48.809613190552248 ], [ 2.377339094332653, 48.810497331823477 ], [ 2.376371316151474, 48.810059710462298 ], [ 2.376247291449975, 48.810167558263146 ], [ 2.375063525439154, 48.809634548201018 ], [ 2.373378143049501, 48.808982650256247 ], [ 2.370878216126383, 48.808015418358949 ], [ 2.367942597204771, 48.808879807186948 ], [ 2.367830415166203, 48.808934862624696 ], [ 2.365465604366721, 48.809215091712844 ], [ 2.364222109297728, 48.811130051856765 ] ] ], 
 "type": "Polygon" 
 } 
}
]
}
